STARLINK-31160          
1 58749U 24005X   25343.07352810  .00002074  00000+0  16853-3 0  9995
2 58749  43.0062 353.6853 0001387 263.2765  96.7920 15.02540715106799
STARLINK-31179          
1 58750U 24005Y   25343.07686970  .00001853  00000+0  15222-3 0  9997
2 58750  43.0057 353.7735 0001323 276.1081  83.9611 15.02536244106796
STARLINK-31127          
1 58765U 24011A   25342.53537384  .00000686  00000+0  35295-4 0  9990
2 58765  53.1607  77.1175 0001544  93.2266 266.8911 15.30190191106319
STARLINK-31114          
1 58766U 24011B   25342.54434889 -.00000621  00000+0 -88298-5 0  9991
2 58766  53.1618  75.0620 0001269  74.2735 285.8406 15.30186992106345
STARLINK-31140          
1 58767U 24011C   25342.52904839 -.00002518  00000+0 -72930-4 0  9999
2 58767  53.1617  77.0790 0001423  95.3770 264.7393 15.30187437106313
STARLINK-31145          
1 58768U 24011D   25343.16668980  .00189658  00000+0  54244-2 0  9990
2 58768  53.1492  82.7257 0006215 321.8855 204.1502 15.34733143  5684
STARLINK-31146          
1 58769U 24011E   25342.59119050 -.00000705  00000+0 -11671-4 0  9992
2 58769  53.1612  76.7562 0001219  94.7696 265.3444 15.30194961106321
STARLINK-31143          
1 58770U 24011F   25342.58802683 -.00002947  00000+0 -87411-4 0  9999
2 58770  53.1613  76.7350 0001260  81.5270 278.5873 15.30202205106320
STARLINK-31135          
1 58771U 24011G   25342.53379194  .00001973  00000+0  78744-4 0  9996
2 58771  53.1619  74.9958 0001408  89.3948 270.7214 15.30191602106346
STARLINK-31136          
1 58772U 24011H   25342.53220577 -.00001172  00000+0 -27435-4 0  9991
2 58772  53.1610  77.0922 0001273  98.2477 261.8669 15.30196888106301
STARLINK-31073          
1 58773U 24011J   25342.53854216  .00000561  00000+0  31070-4 0  9994
2 58773  53.1619  77.1348 0001179  88.5241 271.5894 15.30190063106318
STARLINK-31122          
1 58774U 24011K   25342.54487227  .00000163  00000+0  17651-4 0  9997
2 58774  53.1612  77.1676 0001265  83.6982 276.4163 15.30188336106313
STARLINK-31123          
1 58775U 24011L   25342.64806081 -.00000075  00000+0  95878-5 0  9993
2 58775  53.1594  76.3953 0001186 101.6277 258.4857 15.30198950106337
STARLINK-31117          
1 58776U 24011M   25342.68288777  .00003087  00000+0  11639-3 0  9990
2 58776  53.1594  76.6043 0001510  93.9686 266.1488 15.30180352106332
STARLINK-31132          
1 58777U 24011N   25343.19296977  .00000739  00000+0  37080-4 0  9999
2 58777  53.1624 343.8848 0001204 100.6882 259.4255 15.30188952107706
STARLINK-31120          
1 58778U 24011P   25342.95680404 -.00000609  00000+0 -84486-5 0  9996
2 58778  53.1608  75.4678 0001004  97.2457 262.8658 15.30199346106371
