[{"OBJECT_NAME":"STARLINK-31160","OBJECT_ID":"2024-005X","EPOCH":"2025-12-09T01:45:52.827840","MEAN_MOTION":15.02540715,"ECCENTRICITY":0.0001387,"INCLINATION":43.0062,"RA_OF_ASC_NODE":353.6853,"ARG_OF_PERICENTER":263.2765,"MEAN_ANOMALY":96.792,"EPHEMERIS_TYPE":0,"CLASSIFICATION_TYPE":"U","NORAD_CAT_ID":58749,"ELEMENT_SET_NO":999,"REV_AT_EPOCH":10679,"BSTAR":0.00016853,"MEAN_MOTION_DOT":2.074e-5,"MEAN_MOTION_DDOT":0},{"OBJECT_NAME":"STARLINK-31179","OBJECT_ID":"2024-005Y","EPOCH":"2025-12-09T01:50:41.542080","MEAN_MOTION":15.02536244,"ECCENTRICITY":0.0001323,"INCLINATION":43.0057,"RA_OF_ASC_NODE":353.7735,"ARG_OF_PERICENTER":276.1081,"MEAN_ANOMALY":83.9611,"EPHEMERIS_TYPE":0,"CLASSIFICATION_TYPE":"U","NORAD_CAT_ID":58750,"ELEMENT_SET_NO":999,"REV_AT_EPOCH":10679,"BSTAR":0.00015222,"MEAN_MOTION_DOT":1.853e-5,"MEAN_MOTION_DDOT":0},{"OBJECT_NAME":"STARLINK-31127","OBJECT_ID":"2024-011A","EPOCH":"2025-12-08T12:50:56.299776","MEAN_MOTION":15.30190191,"ECCENTRICITY":0.00015444,"INCLINATION":53.1607,"RA_OF_ASC_NODE":77.1175,"ARG_OF_PERICENTER":93.2266,"MEAN_ANOMALY":266.8911,"EPHEMERIS_TYPE":0,"CLASSIFICATION_TYPE":"U","NORAD_CAT_ID":58765,"ELEMENT_SET_NO":999,"REV_AT_EPOCH":10631,"BSTAR":3.5295342e-5,"MEAN_MOTION_DOT":6.86e-6,"MEAN_MOTION_DDOT":0},{"OBJECT_NAME":"STARLINK-31114","OBJECT_ID":"2024-011B","EPOCH":"2025-12-08T13:03:51.744096","MEAN_MOTION":15.30186992,"ECCENTRICITY":0.0001269,"INCLINATION":53.1618,"RA_OF_ASC_NODE":75.062,"ARG_OF_PERICENTER":74.2735,"MEAN_ANOMALY":285.8406,"EPHEMERIS_TYPE":0,"CLASSIFICATION_TYPE":"U","NORAD_CAT_ID":58766,"ELEMENT_SET_NO":999,"REV_AT_EPOCH":10634,"BSTAR":-8.8298e-6,"MEAN_MOTION_DOT":-6.21e-6,"MEAN_MOTION_DDOT":0},{"OBJECT_NAME":"STARLINK-31140","OBJECT_ID":"2024-011C","EPOCH":"2025-12-08T12:41:49.780896","MEAN_MOTION":15.30187437,"ECCENTRICITY":0.00014234,"INCLINATION":53.1617,"RA_OF_ASC_NODE":77.079,"ARG_OF_PERICENTER":95.377,"MEAN_ANOMALY":264.7393,"EPHEMERIS_TYPE":0,"CLASSIFICATION_TYPE":"U","NORAD_CAT_ID":58767,"ELEMENT_SET_NO":999,"REV_AT_EPOCH":10631,"BSTAR":-7.2930383e-5,"MEAN_MOTION_DOT":-2.518e-5,"MEAN_MOTION_DDOT":0},{"OBJECT_NAME":"STARLINK-31145","OBJECT_ID":"2024-011D","EPOCH":"2025-12-09T04:00:01.998720","MEAN_MOTION":15.34733143,"ECCENTRICITY":0.0006215,"INCLINATION":53.1492,"RA_OF_ASC_NODE":82.7257,"ARG_OF_PERICENTER":321.8855,"MEAN_ANOMALY":204.1502,"EPHEMERIS_TYPE":0,"CLASSIFICATION_TYPE":"U","NORAD_CAT_ID":58768,"ELEMENT_SET_NO":999,"REV_AT_EPOCH":568,"BSTAR":0.0054244,"MEAN_MOTION_DOT":0.00189658,"MEAN_MOTION_DDOT":0},{"OBJECT_NAME":"STARLINK-31146","OBJECT_ID":"2024-011E","EPOCH":"2025-12-08T14:11:18.859200","MEAN_MOTION":15.30194961,"ECCENTRICITY":0.0001219,"INCLINATION":53.1612,"RA_OF_ASC_NODE":76.7562,"ARG_OF_PERICENTER":94.7696,"MEAN_ANOMALY":265.3444,"EPHEMERIS_TYPE":0,"CLASSIFICATION_TYPE":"U","NORAD_CAT_ID":58769,"ELEMENT_SET_NO":999,"REV_AT_EPOCH":10632,"BSTAR":-1.1671e-5,"MEAN_MOTION_DOT":-7.05e-6,"MEAN_MOTION_DDOT":0},{"OBJECT_NAME":"STARLINK-31143","OBJECT_ID":"2024-011F","EPOCH":"2025-12-08T14:06:45.518112","MEAN_MOTION":15.30202205,"ECCENTRICITY":0.000126,"INCLINATION":53.1613,"RA_OF_ASC_NODE":76.735,"ARG_OF_PERICENTER":81.527,"MEAN_ANOMALY":278.5873,"EPHEMERIS_TYPE":0,"CLASSIFICATION_TYPE":"U","NORAD_CAT_ID":58770,"ELEMENT_SET_NO":999,"REV_AT_EPOCH":10632,"BSTAR":-8.7411e-5,"MEAN_MOTION_DOT":-2.947e-5,"MEAN_MOTION_DDOT":0},{"OBJECT_NAME":"STARLINK-31135","OBJECT_ID":"2024-011G","EPOCH":"2025-12-08T12:48:39.623616","MEAN_MOTION":15.30191602,"ECCENTRICITY":0.0001408,"INCLINATION":53.1619,"RA_OF_ASC_NODE":74.9958,"ARG_OF_PERICENTER":89.3948,"MEAN_ANOMALY":270.7214,"EPHEMERIS_TYPE":0,"CLASSIFICATION_TYPE":"U","NORAD_CAT_ID":58771,"ELEMENT_SET_NO":999,"REV_AT_EPOCH":10634,"BSTAR":7.8743767e-5,"MEAN_MOTION_DOT":1.973e-5,"MEAN_MOTION_DDOT":0},{"OBJECT_NAME":"STARLINK-31136","OBJECT_ID":"2024-011H","EPOCH":"2025-12-08T12:46:22.578528","MEAN_MOTION":15.30196888,"ECCENTRICITY":0.00012739,"INCLINATION":53.161,"RA_OF_ASC_NODE":77.0922,"ARG_OF_PERICENTER":98.2477,"MEAN_ANOMALY":261.8669,"EPHEMERIS_TYPE":0,"CLASSIFICATION_TYPE":"U","NORAD_CAT_ID":58772,"ELEMENT_SET_NO":999,"REV_AT_EPOCH":10630,"BSTAR":-2.7435173e-5,"MEAN_MOTION_DOT":-1.172e-5,"MEAN_MOTION_DDOT":0},{"OBJECT_NAME":"STARLINK-31073","OBJECT_ID":"2024-011J","EPOCH":"2025-12-08T12:55:30.042624","MEAN_MOTION":15.30190063,"ECCENTRICITY":0.0001179,"INCLINATION":53.1619,"RA_OF_ASC_NODE":77.1348,"ARG_OF_PERICENTER":88.5241,"MEAN_ANOMALY":271.5894,"EPHEMERIS_TYPE":0,"CLASSIFICATION_TYPE":"U","NORAD_CAT_ID":58773,"ELEMENT_SET_NO":999,"REV_AT_EPOCH":10631,"BSTAR":3.107e-5,"MEAN_MOTION_DOT":5.61e-6,"MEAN_MOTION_DDOT":0},{"OBJECT_NAME":"STARLINK-31122","OBJECT_ID":"2024-011K","EPOCH":"2025-12-08T13:04:36.964128","MEAN_MOTION":15.30188336,"ECCENTRICITY":0.0001265,"INCLINATION":53.1612,"RA_OF_ASC_NODE":77.1676,"ARG_OF_PERICENTER":83.6982,"MEAN_ANOMALY":276.4163,"EPHEMERIS_TYPE":0,"CLASSIFICATION_TYPE":"U","NORAD_CAT_ID":58774,"ELEMENT_SET_NO":999,"REV_AT_EPOCH":10631,"BSTAR":1.7651e-5,"MEAN_MOTION_DOT":1.63e-6,"MEAN_MOTION_DDOT":0},{"OBJECT_NAME":"STARLINK-31123","OBJECT_ID":"2024-011L","EPOCH":"2025-12-08T15:33:12.453984","MEAN_MOTION":15.3019895,"ECCENTRICITY":0.0001186,"INCLINATION":53.1594,"RA_OF_ASC_NODE":76.3953,"ARG_OF_PERICENTER":101.6277,"MEAN_ANOMALY":258.4857,"EPHEMERIS_TYPE":0,"CLASSIFICATION_TYPE":"U","NORAD_CAT_ID":58775,"ELEMENT_SET_NO":999,"REV_AT_EPOCH":10633,"BSTAR":9.5878e-6,"MEAN_MOTION_DOT":-7.5e-7,"MEAN_MOTION_DDOT":0},{"OBJECT_NAME":"STARLINK-31117","OBJECT_ID":"2024-011M","EPOCH":"2025-12-08T16:23:21.503328","MEAN_MOTION":15.30180352,"ECCENTRICITY":0.00015105,"INCLINATION":53.1594,"RA_OF_ASC_NODE":76.6043,"ARG_OF_PERICENTER":93.9686,"MEAN_ANOMALY":266.1488,"EPHEMERIS_TYPE":0,"CLASSIFICATION_TYPE":"U","NORAD_CAT_ID":58776,"ELEMENT_SET_NO":999,"REV_AT_EPOCH":10633,"BSTAR":0.00011639194,"MEAN_MOTION_DOT":3.087e-5,"MEAN_MOTION_DDOT":0},{"OBJECT_NAME":"STARLINK-31132","OBJECT_ID":"2024-011N","EPOCH":"2025-12-09T04:37:52.588128","MEAN_MOTION":15.30188952,"ECCENTRICITY":0.0001204,"INCLINATION":53.1624,"RA_OF_ASC_NODE":343.8848,"ARG_OF_PERICENTER":100.6882,"MEAN_ANOMALY":259.4255,"EPHEMERIS_TYPE":0,"CLASSIFICATION_TYPE":"U","NORAD_CAT_ID":58777,"ELEMENT_SET_NO":999,"REV_AT_EPOCH":10770,"BSTAR":3.708e-5,"MEAN_MOTION_DOT":7.39e-6,"MEAN_MOTION_DDOT":0},{"OBJECT_NAME":"STARLINK-31120","OBJECT_ID":"2024-011P","EPOCH":"2025-12-08T22:57:47.869056","MEAN_MOTION":15.30199346,"ECCENTRICITY":0.0001004,"INCLINATION":53.1608,"RA_OF_ASC_NODE":75.4678,"ARG_OF_PERICENTER":97.2457,"MEAN_ANOMALY":262.8658,"EPHEMERIS_TYPE":0,"CLASSIFICATION_TYPE":"U","NORAD_CAT_ID":58778,"ELEMENT_SET_NO":999,"REV_AT_EPOCH":10637,"BSTAR":-8.4486e-6,"MEAN_MOTION_DOT":-6.09e-6,"MEAN_MOTION_DDOT":0}]
